[{"OBJECT_NAME":"GOSAT (IBUKI)","OBJECT_ID":"2009-002A","EPOCH":"2026-03-09T17:29:41.307648","MEAN_MOTION":14.67546216,"ECCENTRICITY":0.00010778,"INCLINATION":98.0763,"RA_OF_ASC_NODE":181.122,"ARG_OF_PERICENTER":78.6504,"MEAN_ANOMALY":281.4821,"EPHEMERIS_TYPE":0,"CLASSIFICATION_TYPE":"U","NORAD_CAT_ID":33492,"ELEMENT_SET_NO":999,"REV_AT_EPOCH":91687,"BSTAR":7.4971827e-5,"MEAN_MOTION_DOT":3.77e-6,"MEAN_MOTION_DDOT":0},{"OBJECT_NAME":"SL-8 DEB","OBJECT_ID":"1982-051G","EPOCH":"2026-03-09T10:59:43.552608","MEAN_MOTION":14.6487695,"ECCENTRICITY":0.00085848,"INCLINATION":74.0447,"RA_OF_ASC_NODE":193.8602,"ARG_OF_PERICENTER":166.8688,"MEAN_ANOMALY":262.9729,"EPHEMERIS_TYPE":0,"CLASSIFICATION_TYPE":"U","NORAD_CAT_ID":19102,"ELEMENT_SET_NO":999,"REV_AT_EPOCH":61,"BSTAR":0.00068661286,"MEAN_MOTION_DOT":3.643e-5,"MEAN_MOTION_DDOT":0}]
